STARLINK-36257          
1 67903U 26035AA  26081.26109236  .00431572  00000+0  27516-2 0  9991
2 67903  97.2861  14.2939 0000192 265.0076  95.1168 15.75177865  5823
STARLINK-36814          
1 67904U 26036A   26080.64828637  .00088359  00000+0  14907-2 0  9998
2 67904  43.0002 179.2551 0001729 261.4102  98.6562 15.50659778  5534
STARLINK-36729          
1 67905U 26036B   26081.16668981 -.01918841  00000+0 -40723-1 0  9996
2 67905  42.9999 175.5863 0001010 258.2026  16.9644 15.47452600  5653
STARLINK-36763          
1 67906U 26036C   26080.00001157 -.02044709  00000+0 -38553-1 0  9997
2 67906  43.0005 182.3255 0001471 274.0677 354.6883 15.50983574  5463
STARLINK-36742          
1 67907U 26036D   26081.24416217 -.00373296  00000+0 -69740-2 0  9999
2 67907  43.0000 175.1045 0001452 191.5852 168.4975 15.49306871  5632
STARLINK-36827          
1 67908U 26036E   26081.16668981 -.01909129  00000+0 -45948-1 0  9992
2 67908  42.9996 175.2898 0001681 268.7899 126.7690 15.43800888  5658
STARLINK-36822          
1 67909U 26036F   26080.65997157  .00089964  00000+0  15160-2 0  9993
2 67909  42.9968 178.4570 0000179  89.2305 270.8576 15.50685632  5547
STARLINK-36847          
1 67910U 26036G   26080.66336494  .00111624  00000+0  18799-2 0  9997
2 67910  43.0042 178.4878 0002629 294.5188  65.5398 15.50600933  5549
STARLINK-36736          
1 67911U 26036H   26081.16668981 -.01858481  00000+0 -48596-1 0  9992
2 67911  42.9996 175.0699 0001482 280.5108 203.9468 15.41267552  5657
STARLINK-36676          
1 67912U 26036J   26081.16668981 -.01877071  00000+0 -42337-1 0  9996
2 67912  42.9996 175.1339 0001753 275.0838 183.1426 15.45629380  5658
STARLINK-36690          
1 67913U 26036K   26081.16668981 -.01895845  00000+0 -41377-1 0  9999
2 67913  42.9998 175.1113 0001359 281.5500 185.7993 15.46611088  5655
STARLINK-36724          
1 67914U 26036L   26081.16668981 -.01941595  00000+0 -39524-1 0  9995
2 67914  42.9999 175.0499 0001046 276.9717 214.5260 15.48671935  5651
